NORAD_CAT_ID,OBJECT_NAME,OBJECT_TYPE,EPOCH,MEAN_MOTION,ECCENTRICITY,INCLINATION,RA_OF_ASC_NODE,ARG_OF_PERICENTER,MEAN_ANOMALY,BSTAR,MEAN_MOTION_DOT,MEAN_MOTION_DDOT,TLE_LINE0,TLE_LINE1,TLE_LINE2,SEMIMAJOR_AXIS,PERIOD,APOGEE,PERIGEE,DECAYED
53633.0,STARLINK-4593,PAYLOAD,2024-04-09 18:46:14,15.0884078,0.0001384,53.2161,121.661,86.5921,273.5229,3.9261e-05,3.37e-06,0.0,0 STARLINK-4593,1 53633U 22104AX  24100.78211432  .00000337  00000-0  39261-4 0  9992,2 53633  53.2161 121.6610 0001384  86.5921 273.5229 15.08840780 89697,6917.878,95.438,540.7,538.786,0.0
53633.0,STARLINK-4593,PAYLOAD,2024-04-10 07:29:19,15.08839169,0.0001396,53.2162,119.2816,86.8802,273.235,5.8951e-05,6.5e-06,0.0,0 STARLINK-4593,1 53633U 22104AX  24101.31203515  .00000650  00000-0  58951-4 0  9990,2 53633  53.2162 119.2816 0001396  86.8802 273.2350 15.08839169 90461,6917.883,95.438,540.714,538.782,0.0
53633.0,STARLINK-4593,PAYLOAD,2024-04-10 18:37:01,15.08843069,0.0001371,53.216,117.2004,88.3867,271.7282,4.8091e-05,4.78e-06,0.0,0 STARLINK-4593,1 53633U 22104AX  24101.77571229  .00000478  00000-0  48091-4 0  9992,2 53633  53.2160 117.2004 0001371  88.3867 271.7282 15.08843069 90536,6917.871,95.437,540.684,538.788,0.0
53633.0,STARLINK-4593,PAYLOAD,2024-04-11 04:09:20,15.08850121,0.0001442,53.2158,115.4167,84.8574,275.2583,-6.8827e-05,-1.384e-05,0.0,0 STARLINK-4593,1 53633U 22104AX  24102.17315013 -.00001384  00000-0 -68827-4 0  9992,2 53633  53.2158 115.4167 0001442  84.8574 275.2583 15.08850121 89907,6917.849,95.437,540.712,538.717,0.0
53633.0,STARLINK-4593,PAYLOAD,2024-04-11 10:30:52,15.0884766,0.000147,53.2164,114.2269,88.3747,271.7413,3.2298e-05,2.26e-06,0.0,0 STARLINK-4593,1 53633U 22104AX  24102.43810962  .00000226  00000-0  32298-4 0  9999,2 53633  53.2164 114.2269 0001470  88.3747 271.7413 15.08847660 90635,6917.857,95.437,540.739,538.705,0.0
53633.0,STARLINK-4593,PAYLOAD,2024-04-12 04:00:07,15.08839739,0.0001456,53.2159,110.9549,90.3147,269.8012,7.1348e-05,8.48e-06,0.0,0 STARLINK-4593,1 53633U 22104AX  24103.16675360  .00000848  00000-0  71348-4 0  9990,2 53633  53.2159 110.9549 0001456  90.3147 269.8012 15.08839739 90051,6917.881,95.438,540.753,538.739,0.0
53633.0,STARLINK-4593,PAYLOAD,2024-04-12 07:10:53,15.08839895,0.0001474,53.2162,110.3606,90.4444,269.6717,6.5487e-05,7.54e-06,0.0,0 STARLINK-4593,1 53633U 22104AX  24103.29923364  .00000754  00000-0  65487-4 0  9997,2 53633  53.2162 110.3606 0001474  90.4444 269.6717 15.08839895 90765,6917.881,95.438,540.765,538.726,0.0
53633.0,STARLINK-4593,PAYLOAD,2024-04-13 05:26:17,15.08839842,0.0001501,53.2165,106.1976,90.9151,269.2013,2.7635e-05,1.52e-06,0.0,0 STARLINK-4593,1 53633U 22104AX  24104.22659539  .00000152  00000-0  27635-4 0  9996,2 53633  53.2165 106.1976 0001501  90.9151 269.2013 15.08839842 90219,6917.881,95.438,540.784,538.707,0.0
53633.0,STARLINK-4593,PAYLOAD,2024-04-13 07:01:40,15.08839999,0.00015,53.2165,105.9001,90.9385,269.1779,2.641e-05,1.32e-06,0.0,0 STARLINK-4593,1 53633U 22104AX  24104.29283518  .00000132  00000-0  26410-4 0  9991,2 53633  53.2165 105.9001 0001500  90.9385 269.1779 15.08839999 90911,6917.88,95.438,540.783,538.708,0.0
53633.0,STARLINK-4593,PAYLOAD,2024-04-14 05:17:05,15.08835807,0.0001601,53.2173,101.7393,104.8721,255.2448,4.2089e-05,3.82e-06,0.0,0 STARLINK-4593,1 53633U 22104AX  24105.22019909  .00000382  00000-0  42089-4 0  9993,2 53633  53.2173 101.7393 0001601 104.8721 255.2448 15.08835807 91058,6917.893,95.438,540.866,538.651,0.0
53633.0,STARLINK-4593,PAYLOAD,2024-04-15 05:07:52,15.08840233,0.0001604,53.2175,97.2792,105.3453,254.7717,8.6248e-05,1.085e-05,0.0,0 STARLINK-4593,1 53633U 22104AX  24106.21379814  .00001085  00000-0  86248-4 0  9993,2 53633  53.2175  97.2792 0001604 105.3453 254.7717 15.08840233 90515,6917.88,95.438,540.854,538.635,0.0
53633.0,STARLINK-4593,PAYLOAD,2024-04-15 09:54:01,15.08844374,0.0001515,53.2172,96.3845,96.194,263.9224,0.00011283,1.508e-05,0.0,0 STARLINK-4593,1 53633U 22104AX  24106.41251521  .00001508  00000-0  11283-3 0  9995,2 53633  53.2172  96.3845 0001515  96.1940 263.9224 15.08844374 91235,6917.867,95.437,540.78,538.684,0.0
53633.0,STARLINK-4593,PAYLOAD,2024-04-16 04:58:39,15.08836465,0.0001672,53.2187,92.8161,85.9564,274.1619,8.6923e-05,1.095e-05,0.0,0 STARLINK-4593,1 53633U 22104AX  24107.20740436  .00001095  00000-0  86923-4 0  9996,2 53633  53.2187  92.8161 0001672  85.9564 274.1619 15.08836465 90665,6917.891,95.438,540.913,538.6,0.0
53633.0,STARLINK-4593,PAYLOAD,2024-04-16 08:09:25,15.08845121,0.0001865,53.2176,92.2213,95.1586,264.9619,1.0946e-05,-1.14e-06,0.0,0 STARLINK-4593,1 53633U 22104AX  24107.33988030 -.00000114  00000-0  10946-4 0  9998,2 53633  53.2176  92.2213 0001865  95.1586 264.9619 15.08845121 90684,6917.865,95.437,541.02,538.44,0.0
53633.0,STARLINK-4593,PAYLOAD,2024-04-16 16:06:21,15.08839358,0.0001877,53.2182,90.7336,88.4526,271.6681,7.9344e-05,9.75e-06,0.0,0 STARLINK-4593,1 53633U 22104AX  24107.67108375  .00000975  00000-0  79344-4 0  9992,2 53633  53.2182  90.7336 0001877  88.4526 271.6681 15.08839358 91424,6917.882,95.438,541.046,538.449,0.0
53633.0,STARLINK-4593,PAYLOAD,2024-04-17 08:00:11,15.08855691,0.0001509,53.2152,87.7603,85.3703,274.7462,0.00024534,3.62e-05,0.0,0 STARLINK-4593,1 53633U 22104AX  24108.33347210  .00003620  00000-0  24534-3 0  9999,2 53633  53.2152  87.7603 0001509  85.3703 274.7462 15.08855691 90832,6917.832,95.437,540.741,538.654,0.0
53633.0,STARLINK-4593,PAYLOAD,2024-04-18 07:51:00,15.08832668,0.0001364,53.2157,83.2955,129.432,230.6793,-5.3094e-05,-1.133e-05,0.0,0 STARLINK-4593,1 53633U 22104AX  24109.32708507 -.00001133  00000-0 -53094-4 0  9992,2 53633  53.2157  83.2955 0001364 129.4320 230.6793 15.08832668 90985,6917.903,95.438,540.711,538.824,0.0
53633.0,STARLINK-4593,PAYLOAD,2024-04-19 04:31:00,15.08845424,0.0001464,53.2173,79.4298,95.9178,264.1981,6.2626e-05,7.09e-06,0.0,0 STARLINK-4593,1 53633U 22104AX  24110.18820561  .00000709  00000-0  62626-4 0  9990,2 53633  53.2173  79.4298 0001464  95.9178 264.1981 15.08845424 91110,6917.864,95.437,540.742,538.716,0.0
53633.0,STARLINK-4593,PAYLOAD,2024-04-19 07:41:47,15.08846521,0.0001502,53.2174,78.8361,90.4031,269.7133,0.00013179,1.81e-05,0.0,0 STARLINK-4593,1 53633U 22104AX  24110.32068583  .00001810  00000-0  13179-3 0  9996,2 53633  53.2174  78.8361 0001502  90.4031 269.7133 15.08846521 91823,6917.86,95.437,540.765,538.686,0.0
53633.0,STARLINK-4593,PAYLOAD,2024-04-19 22:00:15,15.08848108,0.0001581,53.2177,76.1607,103.979,256.1378,0.00036304,5.496e-05,0.0,0 STARLINK-4593,1 53633U 22104AX  24110.91684704  .00005496  00000-0  36304-3 0  9999,2 53633  53.2177  76.1607 0001581 103.9790 256.1378 15.08848108 91913,6917.856,95.437,540.814,538.627,0.0
53633.0,STARLINK-4593,PAYLOAD,2024-04-20 07:32:33,15.08870774,0.0001793,53.2177,74.3756,109.6302,250.4884,0.00068025,0.00010564,0.0,0 STARLINK-4593,1 53633U 22104AX  24111.31427593  .00010564  00000-0  68025-3 0  9992,2 53633  53.2177  74.3756 0001793 109.6302 250.4884 15.08870774 91288,6917.786,95.436,540.892,538.411,0.0
53633.0,STARLINK-4593,PAYLOAD,2024-04-20 21:51:03,15.08821464,0.0001785,53.2177,71.7005,107.7268,252.3919,-0.00046339,-7.652e-05,0.0,0 STARLINK-4593,1 53633U 22104AX  24111.91045312 -.00007652  00000-0 -46339-3 0  9993,2 53633  53.2177  71.7005 0001785 107.7268 252.3919 15.08821464 92066,6917.937,95.439,541.037,538.567,0.0
53633.0,STARLINK-4593,PAYLOAD,2024-04-21 02:37:12,15.08817565,0.000138,53.2176,70.8085,120.8597,239.2531,-0.00040103,-6.661e-05,0.0,0 STARLINK-4593,1 53633U 22104AX  24112.10917751 -.00006661  00000-0 -40103-3 0  9992,2 53633  53.2176  70.8085 0001380 120.8597 239.2531 15.08817565 91403,6917.949,95.439,540.769,538.859,0.0
53633.0,STARLINK-4593,PAYLOAD,2024-04-21 07:23:22,15.08816527,0.0001423,53.2178,69.9154,124.5474,235.5652,-0.00035326,-5.902e-05,0.0,0 STARLINK-4593,1 53633U 22104AX  24112.30790026 -.00005902  00000-0 -35326-3 0  9996,2 53633  53.2178  69.9154 0001423 124.5474 235.5652 15.08816527 92124,6917.952,95.439,540.802,538.833,0.0
53633.0,STARLINK-4593,PAYLOAD,2024-04-22 02:27:58,15.08851171,0.0001882,53.2169,66.3455,131.9777,228.1375,0.0002953,4.416e-05,0.0,0 STARLINK-4593,1 53633U 22104AX  24113.10276600  .00004416  00000-0  29530-3 0  9999,2 53633  53.2169  66.3455 0001882 131.9777 228.1375 15.08851171 91556,6917.846,95.437,541.013,538.409,0.0
53633.0,STARLINK-4593,PAYLOAD,2024-04-23 03:54:10,15.08839935,6.06e-05,53.2165,61.5886,71.62,288.4858,0.00019433,2.806e-05,0.0,0 STARLINK-4593,1 53633U 22104AX  24114.16261799  .00002806  00000-0  19433-3 0  9991,2 53633  53.2165  61.5886 0000606  71.6200 288.4858 15.08839935 91718,6917.881,95.438,540.165,539.326,0.0
53633.0,STARLINK-4593,PAYLOAD,2024-04-23 05:29:33,15.08837379,8.55e-05,53.2163,61.2913,41.9399,318.1658,0.00012732,1.739e-05,0.0,0 STARLINK-4593,1 53633U 22104AX  24114.22885964  .00001739  00000-0  12732-3 0  9993,2 53633  53.2163  61.2913 0000855  41.9399 318.1658 15.08837379 92416,6917.888,95.438,540.345,539.162,0.0
53633.0,STARLINK-4593,PAYLOAD,2024-04-23 19:48:02,15.08813417,7.96e-05,53.2177,58.6207,142.5877,217.5171,-0.00041487,-6.879e-05,0.0,0 STARLINK-4593,1 53633U 22104AX  24114.82503126 -.00006879  00000-0 -41487-3 0  9997,2 53633  53.2177  58.6207 0000796 142.5877 217.5171 15.08813417 91812,6917.962,95.439,540.377,539.276,0.0
53633.0,STARLINK-4593,PAYLOAD,2024-04-24 03:44:57,15.08843189,0.0001295,53.2177,57.1333,130.0546,230.056,0.00023657,3.479e-05,0.0,0 STARLINK-4593,1 53633U 22104AX  24115.15622485  .00003479  00000-0  23657-3 0  9994,2 53633  53.2177  57.1333 0001295 130.0546 230.0560 15.08843189 91862,6917.871,95.437,540.632,538.84,0.0
53633.0,STARLINK-4593,PAYLOAD,2024-04-24 05:20:20,15.08847803,0.0001164,53.2175,56.834,133.4544,226.6545,0.00024674,3.642e-05,0.0,0 STARLINK-4593,1 53633U 22104AX  24115.22246159  .00003642  00000-0  24674-3 0  9994,2 53633  53.2175  56.8340 0001164 133.4544 226.6545 15.08847803 92563,6917.857,95.437,540.527,538.916,0.0
